[{"OBJECT_NAME":"STARLINK-11223 [DTC]","OBJECT_ID":"2024-133G","EPOCH":"2026-03-09T11:31:31.745856","MEAN_MOTION":15.69708389,"ECCENTRICITY":0.00012932,"INCLINATION":53.1599,"RA_OF_ASC_NODE":147.0745,"ARG_OF_PERICENTER":77.0745,"MEAN_ANOMALY":283.0417,"EPHEMERIS_TYPE":0,"CLASSIFICATION_TYPE":"U","NORAD_CAT_ID":60307,"ELEMENT_SET_NO":999,"REV_AT_EPOCH":9370,"BSTAR":1.5116474e-5,"MEAN_MOTION_DOT":1.243e-5,"MEAN_MOTION_DDOT":0},{"OBJECT_NAME":"FLOCK 4Q-17","OBJECT_ID":"2023-174AD","EPOCH":"2026-03-09T17:33:32.514048","MEAN_MOTION":15.67180586,"ECCENTRICITY":0.0003312,"INCLINATION":97.3815,"RA_OF_ASC_NODE":160.3254,"ARG_OF_PERICENTER":203.6939,"MEAN_ANOMALY":156.417,"EPHEMERIS_TYPE":0,"CLASSIFICATION_TYPE":"U","NORAD_CAT_ID":58283,"ELEMENT_SET_NO":999,"REV_AT_EPOCH":13057,"BSTAR":0.0017680138,"MEAN_MOTION_DOT":0.0019313,"MEAN_MOTION_DDOT":0}]
